"id","Codigo","title","country","state","city","address","numero","zipcode","phone","phone2","whatsapp","fax","email","email2","latitude","longitude","tratores","implementos"
"2","476","2-K TRATORES E MAQUINAS AGRICS. LTDA","Brasil","SP","Barretos","Av. Eng. Necker C.camargo","1.541","14783-080","(17) 3322-3175",,,"(17) 3322-3929","doisktratores@gmail.com",,"-20.56967970","-48.57574640","0","1"
"3","480","TRATORMAQ COML. E REPRESENTAÇÃO LTDA","Brasil","AP","Macapá","Rodovia Br 156 - Jardim Felicidade",,"68909-130","(96) 3251-1017",,,"(96) 3251-1321","tratormak@tratormak.com.br",,"-51.20259520","-30.13073500","1","0"
"4","481","C. DE SOUZA VOLANTE - ME","Brasil","AP","Macapá","Av. Avenida Mendonça Junior","253","68900-000","(96) 3242-4959",,,,"paranacs@uol.com.br",,"-51.05133980","0.07009930","0","0"
"5","483","ARAUJO ANTUNES & FILHOS","Brasil","AM","Itacoatiara","Rua Adamastor De Figueired - Centro","2225","69100-000","(92) 3521-1470",,,"(92) 3521-1788","araujoantunes@proamazon.com.br",,"-3.13321910","-58.43611500","0","1"
"6","484","MOTONORTE MOTS M DO NORTE LTDA","Brasil","AM","Manaus","Rua Miranda Leao - Centro","411","69005-040","(92) 3622-4522",,,"(92) 3622-1349","motonorte@motonorte.com.br",,"-3.13941450","-60.02151280","1","0"
"7","485","JÔ PNEUS LTDA","Brasil","AM","Manaus","Av. Tefe Cachoeirinha","453","69065-020","(92) 3303-3777",,,"(92) 3663.-1030","jopneusmanaus@hotmail.com",,"-3.12455750","-60.00479610","1","1"
"8","486","SOTEMAQ SOCIEDADE TÉCNICA DE MÁQUINAS LTDA","Brasil","AM","Manaus","Rua Miranda Leão - Centro","535","69005-040","(92) 3233-8550",,,"(92) 3233-6742","sotemaq@yahoo.com.br",,"-3.13941450","-60.02151280","1","1"
"9","487","MAQUIPEL COMERCIO DE MAQS. E PEÇAS LTDA","Brasil","AM","Manaus","Rua Leovegildo Coelho - Centro","316","69005-090","(92) 3633-6760",,,"(92) 3633-1404","maquipel@uol.com.br",,"-3.13863800","-60.02154470","0","0"
"10","488","M. E. DO ROSARIO JR. REPRESENTACOES","Brasil","AM","Parintins","Rua Ruy Barbosa","1968-B","69151-260","(92) 3533.1304",,,"(92) 3533.1304","lojasantoantonio@jurupari.com.br",,"-2.62420340","-56.73461600","0","0"
"11","489","PULVETEC MAQUINAS AGRICOLAS LTDA. (02 BA)","Brasil","BA","Bonito","Avenida Antonio Carlos Magalhaes","918","46820-000","(75) 3343-2182",,,"(75) 3343-2182","pulvetec@uol.com.br",,"-11.96720600","-41.26507270","0","0"
"12","490","GRAND RURAL LTDA - EPP","Brasil","BA","Eunápolis","Tupiniquins – Pequi","1397","45828-102","(73) 3281-7929",,"73 - 99931-9609",,"grandrural@grandrural.com.br","tiagosantana@grandrural.com.br","-16.37188000","-39.56847000","0","0"
"13","491","CASA DO JAPONÊS MAQUINAS E PEÇAS LTDA","Brasil","BA","Itabuna","Av. Inácio Tosta Filho - Centro","797","45600-201","(73) 3613-3931",,,"(73) 3613-3371","vendas@casadojapones.com.br",,"-14.78803270","-39.27841780","0","0"
"14","492","BAMAGRIL-BARCELLOS MAQUINAS AGRÍCOLAS BAHIA LTDA","Brasil","BA","Luis Eduardo Magalhães","Av. Jk Quadra 07, Caixa Postal: 924 - Centro","Lotes 01, 02 e 03","47850-000","(77) 3628-3330",,,"(77) 3628-3409","bamagril@uol.com.br",,"-12.09045420","-45.78053750","0","0"
"15","493","GRAND RURAL LTDA – EPP MATRIZ ","Brasil","BA","Teixeira De Freitas","Rod. Br 101 - Bairro Monte Castelo","1480","45990-012","(73) 3292-6950",,"73 - 99931-9609",,"grandrural@grandrural.com.br","tiagosantana@grandrural.com.br","-17.53429150","-39.71230270","0","0"
"16","495","TERRAQUA COMERCIO E SERVICOS DE EQUIPAMENTOS AGRICOLAS LTDA","Brasil","CE","Maracanau","Rod Dr. Mendel Steinbruch",,"61939-906","(85) 3388-4545","(85) 3388-4504",,,"gerencia@terraqua.com.br",,"-3.85067500","-38.59464400","0","0"
"17","496","A MORENO INDUSTRIA E COMERCIO LTDA","Brasil","CE","Iguatu","Rua Deocleciano Bezerra","779","60850-000","(85) 3444-2500",,,"(85) 3444-2500","gerencia@amoreno.com.br",,"-6.35567800","-39.29565000","0","0"
"18","497","FORTEAGRO PRODUTOS AGROPECUÁRIOS","Brasil","CE","Guaraciaba Do Norte","Rua Cel. João Cícero - Centro","340","62380-000","(88) 3652-2170",,,,"forteagroltda@gmail.com",,"-4.16325660","-40.75040290","0","0"
"19","498","A MORENO INDUSTRIA E COMERCIO LTDA","Brasil","CE","Iguatu","Rua Deocleciano Bezerra","779","63500-000","(88) 3581-1003",,,"(88) 3581-2580","goncalves.oliveira@amoreno.com.br",,"-6.35567800","-39.29565000","0","0"
"20","499","JOÃO RIBEIRO LIMA & CIA. LTDA","Brasil","CE","Ubajara","Rua 31 De Dezembro - Centro","325","62350-000","(88) 3634-1381",,,"(88) 3634-1381","casadavariedade@bol.com.br",,"-3.85485820","-40.92080160","0","0"
"21","500","HANASHIRO MAQUINAS AGRICOLAS LTDA","Brasil","DF","Brasília","Sia/sul Quadra 5c","221","71200-055","(61) 3233-3440",,,"(61) 3233-3060","hanashiro@hanashiro.com.br",,"-15.82179690","-47.92342180","0","0"
"22","502","COMERCIAL SCARDUA","Brasil","ES","Serra","Rodovia Governador Mario Covas","4251","29620-000","(27) 3720-4500",,"(27) 9 9720-3423","(27) 3720-4501","comercial@comercialscardua.com.br",,"-19.87262300","-40.87526580","0","0"
"23","504","A TRATOR DIESEL","Brasil","GO","Goiânia","Av. Bandeirantes - Bairro Ipiranga","300 Qd. 85 Lt 6e","74453-040","(62) 3086-7200","(62) 99186-0137",,,"falecom@atratordiesel.com.br",,"-16.66038350","-49.32842680","0","0"
"24","509","L. LUCENA COM. DE PÇAS E MOTORES","Brasil","MA","Gov. Nunes Freitas","Rua Do Comercio","2011","65284-000","(98) 3371-1126",,,"(98) 3371-1126","compemol@hotmail.com",,"-2.12935540","-45.87808410","0","0"
"25","510","M. VENI ARAÚJO TEIXEIRA","Brasil","MA","Nunes Freire","Rua Do Comércio – Centro","2003","65284-000","(98) 3371-1226",,,"(98) 3371-1226","compemol@hotmail.com",,"-2.12935540","-45.87808410","0","0"
"26","511","AGRORIO MÁQUINAS AGRÍCOLAS LTDA","Brasil","MT","Água Boa","Rua 10, Caixa Postal 151 - Setor Industrial","171","78635-000","(66) 3468-3470",,,"(66) 3468-3881","riama.implementos@riama.com.br","rafaelvendas@gmail.com","-14.04748900","-52.15938340","0","0"
"27","512","REGIONAL TRATORES LTDA","Brasil","MT","Canarana","Rua Tenente Portela - Centro","445","78640-000","(66) 3478-2187",,,"(66) 3478-1231","regionaltratoresltda@uol.com.br",,"-13.55647390","-52.26911230","0","0"
"28","513","CARPAU PRODUTOS AGROPECUÁRIOS LTDA. - ME","Brasil","MT","Peixoto De Azevedo","Rua Lauro Leite","82","78530-000","(66) 3575-1818",,,"(66) 3595-1818","carpaupeixoto@hotmail.com",,"-10.24469130","-54.98872180","0","0"
"29","514","BRANCHER MOTORES E MÁQUINAS LTDA","Brasil","MT","Pontes Lacerda","Av. Marechal Rondon - Centro","1351","78250-000","(65) 3266-1320",,,"(65) 3266-2509","branchermotores@terra.com.br",,"-15.23322710","-59.32824500","0","0"
"30","515","GP COMÉRCIO DE FILTROS E LUBRIFICANTES LTDA","Brasil","MT","Rondonopolis","A. Fernando Correa Da Costa - Vila Birigui","1987","78705-600","(66) 3426-7222",,,"(66) 3426-6269","promaxsupertroca@terra.com.br",,"-16.46547570","-54.63872290","0","0"
"31","516","SERTÃO COMERCIAL DE EQUIPAMENTOS AGRÍCOLAS LTDA","Brasil","MS","Campo Grande","Rua 13 De Maio - Santa Dorotheia","557","79004-423","(67) 3317-5010",,,"(67) 3317-5001","daniela@sertao.com.br",,"-20.46971050","-54.62012110","0","0"
"32","517","VALTER FERNANDES DE LIMA - ME","Brasil","MS","Dourados","Rua Hayel Bom Faker","1470","79810-100","(67) 3421-1947",,,"(67) 3421-1947","motocarddos@yahoo.com.br",,"-22.18152490","-54.67312880","0","0"
"33","520","AGROPECUARIA UBA LTDA. (LIDER MAQ.)","Brasil","MG","Barbacena","Av. Governador Bias Fortes - Pontilhão","1639","36500-000","(32) 3333-6688",,,"(32) 3333-6688","lidermaq@yahoo.com.br",,"-21.22154400","-43.76998000","0","0"
"34","521","GEMAPE MÁQUINAS E PEÇAS LTDA","Brasil","MG","Belo Horizonte","Av. Cristiano Machado","7220","31810-280","(31) 3029-4666",,,"(31) 3029-4651","gemape@gemape.com.br",,"-19.86130020","-43.92877490","0","0"
"35","522","ALVORADA TRATORES","Brasil","MG","Boa Esperança","Rodovia Br 265, A 300 M Do Trevo Capebe – Zona Rural - Caixa Postal: 10",,"37170-000","(35) 3851-1140",,,"(35) 3851-1851","alvoradatratoresvendas@hotmail.com",,"-21.09282520","-45.56296030","0","0"
"36","523","TRES VALES AGROPECUARIA LTDA","Brasil","MG","Capelinha","Rua Rio Branco - Planalto","1213","39680-000","(33) 3516-1467",,,"(33) 3516-1948","tresvale@uai.com.br",,"-17.69299450","-42.51721070","0","0"
"37","524","NUTRICAMPO LTDA","Brasil","MG","Igarapé","Av. Bernardino Da Silva Couto - Centro","1700","32900-000","(31) 3534-1275",,,"(31) 3534-1275","vendas@nutricampo.com.br","nutricampo@nutricampo.com.br","-20.07115210","-44.29986550","0","0"
"38","526","DALMEI COMERCIO REPRESENTAÇÕES LTDA","Brasil","MT","Sorriso","Av. Perimetral Sudeste","11287","78890-000","(66) 3544-1658",,,"(66) 3544-1658","dalmeisorriso@bol.com.br",,"-12.54294560","-55.72153670","0","0"
"39","527","CASA DA LAVOURA LTDA","Brasil","MT","Várzea Grande","Av. Da Feb","2220","78110-000","(65) 3682-5051",,,"(65) 3682-1833","lavoura@agromt.com.br",,"-15.65228700","-56.15709000","0","0"
"40","528","GILDA DA CUNHA GUEDES VILELA – ME","Brasil","MG","Ouro Fino","Rua Olimpio Garcia Dos Santos – Centro","85","37570-000","(35) 3441-5320",,,,"jamaquinasof@yahoo.com.br",,"-22.27853730","-46.37121290","0","0"
"41","529","IAMAQ TRATORES E MAQUINAS LTDA","Brasil","MG","Patos De Minas","Av. Jk","940","38706-000","(34) 3822-5500",,,"(34) 3822-5500","iamaqvendas@yahoo.com.br",,"-18.61279120","-46.51341790","0","0"
"42","530","PARK MÁQUINAS AGRÍCOLAS LTDA","Brasil","MG","Patrocínio","Avenida Faria Pereira - Bairro Morada Do Sol","810","38743-110","(34) 3831-9810",,,,"paulobotelho@parkmaquinas.com.br",,"-18.92457000","-47.00645390","0","0"
"43","531","NENA TRATORES E IMPLEMENTOS LTDA","Brasil","MG","Alfenas","Av. Mario Barbosa Vieira - Loteamento Trevo","954","37925-000","(37) 3371-4999",,,,"pedrohpacheco@hotmail.com",,"-20.47424880","-45.96198610","0","0"
"44","532","SAMI MÁQUINAS","Brasil","MG","Franca","Av. Wilson Sabio De Mello - Bairro Polo Industrial São Bernardo","2141","37950-000","(35) 3531-7000",,,,"filial@samimaquinas.com.br",,"-20.91721280","-46.98414430","1","0"
"45","533","CAMPOMAC AGRY LTDA","Brasil","MG","Teófilo Otoni","Av. Sidônio Otoni - Fátima","606","39800-224","(33) 3522-6120",,,,"campomac@campomac.com.br",,"-17.84996800","-41.51877520","0","0"
"46","534","AGROCAMPINHO COML DE TRATORES E IMPLS AGRICOLAS LTDA","Brasil","MG","Ubá","Rodovia Mg 447 Uba A Visconde Do Rio Branco Km 6 S/n Zona Rural",,"36500-000","(32) 3532-3293",,,"(32) 3532-3293","fernando@agrocampinhomaquinas.com.br",,"-21.03235200","-42.85171000","0","0"
"47","535","TRIAMAQ","Brasil","MG","Uberlândia","Av. Prof. Minervina C. De Oliveira - Bom Jesus","2270","38400-746","(34) 3236-9001","(34) 3236-2448",,"(34) 3236-2448","triamaq@triamaq.com.br",,"-18.89398000","-48.27168000","0","0"
"48","537","AGROMAX EQUIPAMENTOS AGRICOLAS LTDA","Brasil","PA","Ananindeua","Rod. Br. 316 Km 05 - Bairro Coqueiros","900","67015-220","(91) 3184-8100",,,"(91) 3184-8102","vendas@agromaxnh.com.br",,"-1.36669120","-48.41379240","0","0"
"49","538","MOTOBEL MOTORES DE BELEM LTDA. (1)","Brasil","PA","Ananindeua","Rod. Br 316 Km 2,5 S/n",,"67013-000","(91) 3202-3000",,,"(91) 3202-3088","motobel@motobel.com.br",,"-1.39433600","-48.42627360","0","0"
"50","539","AGR COMÉRCIO DE PEÇAS AGRÍCOLAS LTDA","Brasil","PA","Ananindeua","Rodovia Br 316, Km 05 – Águas Lindas",,"67020-000","(91) 3245-2591",,,,"agrpecas@hotmail.com",,"-1.39170290","-48.38883840","0","0"
"51","540","MAQBEL MAQS EQUIPAMENTOS SERVICOS LT","Brasil","PA","Belém","Rua Siqueira Mendes","32/50","66020-600","(91) 3224-4677",,,"(91) 3222-7126","maqbel@interconect.com.br",,"-1.45654020","-48.50576980","0","0"
"52","541","MAQBRASIL MAQ. E EQUIPAMENTOS LTDA. - ME","Brasil","PA","Belém","Rua Magno - Bairro Montese","1504","66077-375","(91) 3276-6298",,,"(91) 3276-6298","maqbrasil_pa@yahoo.com.br",,"-1.44914590","-48.44698440","0","0"
"53","542","COSMO FERREIRA DE OLIVEIRA LTDA","Brasil","PA","Belém","Praça São Cristovão - Marco","80","66613-840","(91) 3276-8845",,,"(91) 4008-0950","olimaquinas@oi.com.br",,"-1.42320100","-48.45026810","0","0"
"54","543","LI COMÉRCIO E SERVIÇOS LTDA","Brasil","PA","Belém","Rua Dr. Malcher – Cidade Velha","09","66020-250","(91) 3355-9982",,,,"casmapel@globo.com",,"-1.45835400","-48.50409320","0","0"
"55","544","ÁREA PORTUÁRIA COM. DE PEÇAS E MOTORES LTDA","Brasil","PA","Belém","Rua Do Arsenal - Loja 02 Ed. Antoni","919","66023-110","(91) 3086-1847",,,"(91) 3223-7015","areaportuarea@gmail.com",,"-1.46194990","-48.50622070","0","0"
"56","545","CASMAPE CASTANHAL COMERCIO DE MAQUINAS E PECAS EIRELI","Brasil","PA","Castanhal","Av. Presidente Getúlio Vargas - Ianetama - Castanhal","3126","68745-000","(91) 3721-2943",,,"(91) 3721-5437","casmape@globo.com",,"-1.29278220","-47.91440070","0","0"
"57","546","REIMAC REDENÇÃO I M AGRICOLA LTDA","Brasil","PA","Marabá","Folha 29 - Quadra 21 - Nova Maraba","Lote 09-A","68506-560","(94) 3322-3838",,,"(94) 3322-3575","reimaqpecas@skorpionet.com.br",,"-5.33206280","-49.08591370","0","0"
"58","547","AGRIPEÇAS LTDA","Brasil","PA","Marabá","Rua A, Q 06 Km 07","Lote 08","68504-000","(94) 2101-2250",,,"(94)2101-2250","agripecas_agr@hotmail.com",,"-5.34512050","-49.07812080","0","0"
"59","548","AGRÍCOLA IMPLEMENTOS LTDA","Brasil","PA","Marabá","Folha 29 - Quadra 31 - Lotes 1013 S/n - Nova Maraba",,"68508-970","(94) 99177-9199",,,,"agricolamba@outlook.com",,"-5.34727450","-49.08052730","0","0"
"60","549","MOTOBEL MOTORES DE BELEM LTDA. (2)","Brasil","PA","Marabá","Rod. Transamazônica, Km 1 Aeroporto","3215","68500-000","(94) 3324-1767",,,"(94) 3324-1150","maraba@motobel.com.br",,"-5.36992000","-49.19251000","0","0"
"61","552","JESSICA MOTO SERRA EQUIP. AGRÍCOLAS LTDA","Brasil","PA","Parauapebas","Rua 15 - Quadra 59","59","68515-000","(94) 3346-1365",,,"(94) 3346-9744","jm.ltda@yahoo.com.br",,"-6.06820160","-49.90416960","0","0"
"62","553","MOTOBRAS MOTORES LTDA","Brasil","PA","Redenção","Av. Min. Osmar Tompson Filho - Entroncamento","32","68552-140","(94) 3424-1337",,,"(94) 3424-1270","motobras@jc.net.br",,"-8.03792980","-50.02489840","0","0"
"63","556","MOTOBEL MOTORES DE BELEM LTDA. (3)","Brasil","PA","Uraim-paragominas","Av. Pres. Vargas, S/n Quadra R Lote 6-c",,"68625-130","(91) 3729-3339",,,"(91) 3729-3099","paragomi@motobel.com.br",,"-2.98934070","-47.40123160","0","0"
"64","557","AGRIMAQ COM. DE MAQ. AGR. LTDA. (01)","Brasil","PR","Araucaria","Rod. Br. 476 Km 20 - Faz. Velha",,"83707-440","(41) 3642-3676",,,"(41) 3642-3676","agrimaq.araucaria@hotmail.com",,"-25.59300000","-49.40481087","0","0"
"65","558","PORTAL MOTORES EQUIP. MAQUINAS E PEÇAS LTDA","Brasil","PR","Curitiba","Rua Thomas Edison - Bairro Prado Velho","140","80215-260","(41) 3042-3409",,,,"portalmaquinas1@hotmail.com",,"-25.42448999","-49.27300000","0","0"
"66","559","AGRO PEC FOZ DO IGUACU LTDA","Brasil","PR","Foz Do Iguaçu","Av. Republica Argentina - Centro","1616","85852-090","(45) 3572-4884",,,"(45) 3572-4884","marcelo-agrofoz@hotmail.com",,"-25.54709999","-54.58800000","0","0"
"67","561","CACOL- AGRIC. COML. LONDRINA LTDA","Brasil","PR","Londrina","Rua Messias Wilmar De Souza","68","86025-190","(43) 3329-0909",,,"(43) 3337-4084","cacol@cacol.com.br",,"-23.30693999","-51.15966803","0","0"
"68","563","C S NARIMATSU & A A DOS SANTOS ME","Brasil","PR","Maringá","Av. Brasil 6328 ","Zona 4","87015-280","(44) 3028-3619",,,"(44) 3028-3619","ciamag-mga@wnet.com.br",,"-23.42446120","-51.95943620","0","0"
"69","568","PULVETEC MAQUINAS AGRICOLAS LTDA","Brasil","PE","Petrolina","Br 407 – Jardim São Paulo","320","56314-570","(87) 3867-9575",,,"(87) 3867-9575","pulvetec@uol.com.br",,"-9.36783200","-40.54226500","0","0"
"70","569","GIL MAQ INDUSTRIA E COMERCIO LTDA","Brasil","PE","Recife","Estrada Dos Remedios","1341","50750-000","(81) 2102-3633",,,"(81) 2102-3633","gilmaq@gilmaq.com.br",,"-8.06814000","-34.90840000","0","0"
"71","570","IRRIMAQUINAS - IRRIGAÇÃO E MÁQUINAS LTDA","Brasil","PI","Floriano","Rua Alfredo Estrela - Centro","338","64800-000","(89) 3521-2830",,,"(89) 3521-2830","irrimaquinas@yahoo.com.br",,"-6.76582500","-43.02172600","0","0"
"72","571","M. CARVALHO & CIA LTDA","Brasil","PI","Teresina","Rua Rui Barbosa - Centro / Norte","1257","64000-090","(86) 3232-4090",,,"(86) 3232-4090","vendas@mcarvalho.com.br","cleidiane@mcarvalho.com.br","-5.09201080","-42.80375970","0","0"
"73","572","A. SAMPAIO E CIA LTDA","Brasil","PI","Teresina","Rua Anfrisio Lobão - Bairro Jockey Clube","1869","64049-280","(86) 3233-1153",,,"(86) 3233-3525","sampaio.cia@uol.com.br",,"-5.07269170","-42.78706230","0","0"
"74","573","A. J RODRIGUES NETO","Brasil","RJ","Campos Dos Goytacazes","Av. Presidente Vargas","217","28055-293","(22) 2731-7911",,,,"anisio.ajemaq@ig.com.br",,"-21.76266820","-41.31845010","0","0"
"75","574","ITAMAPE DE ITAPERUNA MÁQUINAS E PEÇAS LTDA","Brasil","RJ","Itaperuna","Av. Deputado Cory D Campos Pillar Filho","1562","28300-000","(22) 3824-1536",,,"(22) 3824-1536","ronaldoitamape@yahoo.com.br",,"-21.20015780","-41.88030550","0","0"
"76","576","TRATOR RETRO COM. SERV. E LOC. MAQS. E CAMIHÕES LTDA. ME","Brasil","RJ","Tanguá","Rod. Br 101 Km 280 Lote 04 Quadra 01 – Duques",,"24890-000","(21) 2639-8920",,,,"tratorretro2@gmail.com",,"-22.74280380","-42.72059940","0","0"
"77","577","LAQUEIROZ COMÉRCIO DE MÁQUINAS AGRÍCOLAS","Brasil","RJ","Teresópolis","Estrada Teresópolis Friburgo Km 6,5 -  Albuquerque","6965","25976-440","(21) 2743-0473","(21) 2742-2884",,"21-2743 0473 | 2742 2884","leonardo@agroqueiroz.com.br",,"-22.37660470","-42.93258940","0","0"
"78","582","TRAMAK - TRATORES E MAQUINAS KAFER L","Brasil","RS","Erechim","Rua Delmar Luiz Rigoni - Bairro Aeroporto","55","99700-000","(54) 3522-1814",,,"(54) 3522-1814","kafer.rs@st.com.br",,"-27.65719000","-52.27670000","0","0"
"79","584","ITAPEVA COMERCIAL AGRÍCOLA LTDA","Brasil","RS","Osório","Rs -030- Km 86 - Bairro Entroncamento","90","95520-000","(51) 3663-6577",,,"(51) 3663-1636","itapeva@terra.com.br",,"-29.89289000","-50.26133000","0","0"
"80","585","BERGMANN MAQS. E IMPLS. AGTRIC. LTDA","Brasil","RS","Pelotas","Rua Barão De Santa Tecla","517","96010-140","(53) 3227-7373",,,"(53) 3227-7373","bergmann.maquinas@terra.com.br",,"-31.77209001","-52.34310587","0","0"
"81","587","BERGMANN & CIA. LTDA","Brasil","RS","S. Lorenço Do Sul","Av. Cel. Nono Centeno","375","96170-000","(53) 3251-3088",,,"(53) 3251-1451","lula@bergmann-maquinas.com",,"-31.36482000","-51.97800000","0","0"
"82","588","LOTHAR KRAUSE & CIA LTDA","Brasil","RS","Santa Cruz Do Sul","Av Independencia - Centro","168","96815-000","(51) 3713-2656",,,"(51) 713-3495","bianca.vanzin@lkrause.com.br","credito@lkrause.com.br","20.12790140","40.69323750","0","0"
"83","590","HERMANNS INSUMOS E EQUIPAMENTOS LTDA","Brasil","RS","Santa Rosa","Av, Inhacora - Centro","119 302","98500-000","(55) 3512-1985",,,"(55) 3512-1985","hermanns@hermanns.com.br",,"-27.37082000","-53.75800000","0","0"
"84","591","F. G. ASSITÊNCIA TÉCNICA EM AGROPECUÁRIA LTDA","Brasil","RS","Santo Expedito Do Sul","Av. José Pilonetto - Centro","830 B","99895-000","(54) 3396-1147",,,"(54) 3396-1147","gelson@fgme.com.br",,"-27.90793140","-51.64385710","0","0"
"85","593","JOEL FRAGA SHEWFFER & CIA. LTDA","Brasil","RS","Torres","Av. Castelo Branco","521","95560-000","(51) 3664-3584",,,"(51) 3626-1769","micromaq@terra.com.br",,"-29.33482000","-49.72700000","0","0"
"86","595","OLIVEIRA & BRITO LTDA","Brasil","RR","Boa Vista","Av. Ville Roy - São Vicente","7322","69303-000","(95) 3624-5485",,,"(95) 3624-1082","comam_rr@yahoo.com.br",,"2.83132000","-60.66386000","0","0"
"87","597","FERPAM COMÉRCIO DE BORRACHAS LTDA","Brasil","TO","Araguaia","R. Marechal Deodoro – Vila Rosário","26","77823-010","(63) 3411-8400",,,,"estevão@ferpam.com.br",,"-9.71160900","-35.89583000","0","0"
"88","598","IMPLEMENTOS AGRICOLAS OLIVEIRA LTDA","Brasil","RO","Alta Floresta Do Oeste","Av. Brasil","4390","78994-000","(69) 3641-2282",,,"(69) 3641-2282","motomotores@hotmail.com",,"-11.92917000","-61.99382000","0","0"
"89","599","CACOAL MOTO SERRAS LTDA","Brasil","RO","Cacoal","Av. Castelo Branco","19209","78975-000","(69) 3441-3473",,,"(69) 3441-2272","cmserras@nettravel.com.br",,"-11.43405000","-61.46202000","0","0"
"90","600","C.V. MÁQUINAS E EQUIPAMENTOS EIRELLI - EPP","Brasil","RO","Guajará Mirim","Av. Presidente Dutra","393 A","76850-000","(69) 3541-2223",,,,"guajara@implemaq.com.br",,"-10.78932100","-65.33010490","0","0"
"91","601","AGROMOTORES MAQUINAS E IMPLS. LTDA. (FILIAL)","Brasil","RO","Guajará Mirim","Av. Dr. Mendonça Lima – Centro","39","78957-000","(69) 3541-7239",,,,,,"-10.78932100","-65.33010490","0","0"
"92","602","HILGERT & CIA LTDA","Brasil","RO","Ji-parana","Av Marechal Rondon","1327 - S2","78961-390","(69) 3411-5500",,,,"vendas@implemaq.com.br",,"-10.87762200","-61.94649200","0","0"
"93","603","AGROMOTORES MAQUINAS E IMPLEM. LTDA","Brasil","RO","Porto Velho","Rua Almirante Barroso, Bairro N. S. Das Graças","1528","78915-020","(69) 3211-3400",,,"(69) 3211-3402","agromotores@agromotores.com.br",,"-8.77130000","-63.88185000","0","0"
"94","604","TRATORDICO COM. E REPRESENTAÇÕES LTDA","Brasil","RO","Vilhena","Av. Marechal Rondon","3472","76980-000","(69) 3322-1311",,,"(69) 3322-1311","compras@tratordico.com.br",,"-12.74578000","-60.11326000","0","0"
"95","605","ACH COMÉRCIO IMPORTAÇÃO E EXPORTAÇÃO LTDA","Brasil","RO","Guajará Mirim","Av. Presidente Dutra","393 A","76850-000","(69) 3541-6149",,,,"ach-ach@bol.com.br",,"-10.78932100","-65.33010490","0","0"
"96","606","OFIC E COM A.PECAS S. CRISTOVAO LTDA","Brasil","SC","Alfredo Wagner","Rua Do Comercio","205","88450-000","(48) 3276-1148",,,"(48) 3276-1148","oficina.cristovao@hotmail.com",,"-27.70059600","-49.32783130","0","0"
"97","607","AGRINORTE COMÉRCIO DE MÁQUINAS LTDA","Brasil","SC","Indaial","Br 470 Km 71 - Bairro Rio Morto","1555","89130-000","(47) 3394-5920",,,"(47) 3394-5920","agrinorte@brturbo.com.br",,"-26.89997000","-49.23386000","0","0"
"98","608","AGROMAR REPAROS DE MOTORES LTDA","Brasil","SC","Itajai","Rua Carlos Seara - Vila Operaria","554","88303-200","(47) 3348-2851",,,"(47) 3349-7638","agromar1@terra.com.br",,"-26.90539000","-48.66492688","0","0"
"99","609","SILVA COM. DE TRATORES LTDA","Brasil","SC","Ituporanga","Rua Pref. Virgilio Scheller -B. Sto Antonio","599","88400-000","(47) 3533-3100",,,"(47) 3533-3100","silvatratores@silvatratores.com.br",,"-27.41567780","-49.60338400","0","0"
"100","611","J.BOITAS COM.MAQ.E EQ.E IMPL.AGRICS.","Brasil","SC","José Boiteux","Av. 26 De Abril, S/nr - Centro",,"89145-000","(47) 3352-7015",,,"(47) 3352-7015","jboitas@jboitas.com.br",,"-26.95706430","-49.62911450","0","0"
"101","612","AGROFER AGRICOLA FERRARI LTDA","Brasil","SC","São Miguel Do Oeste","Rua Guanabara - Centro","805","89900-000","(49) 3622-3939 ",,,,"agrofer@agrofersmo.com.br",,"-26.73450353","-53.51992696","0","0"
"102","613","MASSARANDUBA TRATORES LTDA ME","Brasil","SC","Massaranduba","Rua Adolfo Cardoso - Centro 1 Andar","913","89108-000","(47) 3379-1277",,,"(47) 3379-1277","massba.autopecas@hotmail.com",,"-26.61195340","-49.00757140","0","0"
"103","614","AGROMAQUI AGROP. E MAQUINAS LTDA","Brasil","SC","Rio Do Sul","Rua 15 De Novembro - Bairro Laranjeiras","851","89160-000","(47) 3521-1866",,,"(47) 3521-1866","agromaqui1@yahoo.com.br",,"-27.21527000","-49.63901000","0","0"
"104","617","SEMAG-COMERCIAL AGRICOLA LTDA","Brasil","SP","Capão Bonito","Av.placido Batista Da Silveira - Centro","339","18305-475","(15) 3543-1112",,,"(15) 3543-1112","hissano@hotmail.com",,"-24.00216000","-48.35026380","0","0"
"105","618","OTTOBONI MAQS. E IMPLS. AGRICS. LTDA","Brasil","SP","Dracena","Rua João Ottobon","187","17900-000","(18) 3821-8100",,,"(18) 3821-1166","ottoboni@ottoboni.agr.br",,"-21.49082890","-51.53842580","0","0"
"106","619","SAMI MÁQUINAS","Brasil","SP","Franca","Av. Wilson Sabio De Mello - Bairro Polo Industrial São Bernardo","2141","14406-052","(16) 3713-9600",,,"(16) 3713-9600","comercial@samimaquinas.com.br",,"-20.54772060","-47.43700930","0","0"
"107","620","AGRO KAYAMA COM. PROD. AGR. LTDA - EPP","Brasil","SP","Ibiuna","Rua Francisco De Barros","36","18150-000","(15) 3241-1244",,"(15) 99699-7861",,"mailtoagrokayama@agrokayama.com.br",,"-23.66010080","-47.22348900","0","0"
"108","621","JIMA - INDUSTRIA E COMERCIO LTDA","Brasil","SP","Jales","Av. Joao Amadeu","3075","15700-000","(17) 3624-4500",,,"(17) 3624-4501","jima.jima@uol.com.br",,"-20.26938000","-50.54774000","0","0"
"109","622","IMPLEMENTOS YAMASHITA LTDA","Brasil","SP","Jundiai","Cx.postal 348 Av. Profª. Maria Do Carmo G. Pellegrine","360","13209-500","(11) 4589-1866",,,"(11) 4589-1866","yamashita@yamashitaonline.com.br",,"-23.17855160","-46.90846020","0","0"
"110","623","SEPAM – SERV. EQUIP. PROD. P/ AGRICULTURA E MAQUINAS LTDA","Brasil","SP","São Carlos","R. Arthur Rodrigues De Castro, Jd. São Paulo","90","13486-171","(19) 3441-0337",,,,"sepam@sepamtratores.com.br",,"-22.55911060","-47.39151620","0","0"
"111","624","CIAMAR COMERCIAL LTDA","Brasil","SP","Marilia","Rua Espanha","193","17519-780","(14) 3401-0333",,,"(14) 3401-0339","ciamar@ciamartratores.com.br",,"-22.21758460","-49.95052910","1","0"
"112","625","CORUJAO COM.REP.DE MAQS.AGRICS.LTDA","Brasil","SP","Mococa","Rodovia Sp 340, Km 271,6",,"13737-627","(19) 3656-2443",,,"(19) 3656-1102","ricardo@corujaotratores.com.br",,"-21.51013940","-47.02185500","1","1"
"113","626","HIRAMAQ PEÇAS COML. AGRÍCOLA LTDA","Brasil","SP","Biritiba-Mirim","Av. Ferdinando Jungers","170","08940-000","(11) 4692-1009",,,,"katia@hiramaq.com.br",,"-23.57282000","-46.03900000","1","0"
"114","627","ROMA TRATORES IMPLS. E PECAS LTDA","Brasil","SP","Presidente Prudente","Av.brasil","2830","19013-002","(18) 3223-1100",,,,"romatrat@stetnet.com.br",,"-22.12381700","-51.39225100","1","0"
"115","628","SEPAM – SERV. EQUIP. PROD. P/ AGRICULTURA E MAQUINAS LTDA","Brasil","SP","São Carlos","R. Arthur Rodrigues De Castro, Jd. São Paulo","90","13570-140","(16) 3368-5011",,,"(16) 3368-5011","sepan@terra.com.br",,"-22.03062640","-47.87507090","0","0"
"116","629","AGRAUPE DISTRIBUIDORA DE PECAS LTDA","Brasil","SP","São Paulo","Rua Brigadeiro Galvao","851","01151-000","(11) 3595-7977",,,"(11) 3828-7976","agraupe@agraupe.com",,"-23.55376000","-46.64228323","0","0"
"117","631","COMERCIAL MOTO JATO LTDA","Brasil","SP","São Paulo","Rua Aroaba, 105 / 111",,"05315-020","(11) 3837-9088",,,"(11) 3832-4087","cintia@motojato.com.br","adm@motojato.com.br","-23.54800000","-47.06296528","0","0"
"118","632","KINOSHITA & UEDA LTDA","Brasil","SP","Sorocaba","Av. Dr. Armando Panunzio","1120","18050-000","(15) 3221-2774",,,"(15) 3221-3280","kinoshita@kinoshita.com.br",,"-23.52308900","-47.49103650","0","0"
"119","633","MIZUTA HISASHI MÁQUINAS E FERRAMENTAS LTDA","Brasil","SP","Taubaté","Av. Independencia","159","12031-001","(12) 3681-2788",,,"(12) 3681-2788","sjc@mizuta.com.br",,"-23.03752790","-45.57916120","0","0"
"120","634","HTM MAQUINARIAS","Argentina",,"Buenos Aires","Ruta Panamericana -km 50.700 - Escobar",,"1625","(54-03488) 420-415",,,"(54-03488) 420-415",,,"0.00000000","0.00000000","0","0"
"121","635","PETELIN MAQUINARIAS","Bolívia",,"Entre Rios","Av. Dr. Casillas - Chajari","1175","3228","(03456) 420-115",,,"(03456) 420-115","petelinmaquinarias@xinet.com.ar",,"0.00000000","0.00000000","0","0"
"122","636","PEDRO S. VILLEGAS S.A","Bolívia",,"Rio Negro","Tronador 1280 - Gral. Roca",,"8332","(02941) 432-899",,,"(02941) 432-899","psvroca@infovia.com.ar",,"0.00000000","0.00000000","0","0"
"123","637","DISTRIBUIDORA SAN RAFAEL","Chile",,"Cochabamba","Calle 25 De Mayo, 580",,,"(591-4) 425-026",,,"(591-4) 411-524","distribuidora_sanrafael@yahoo.com.ar",,"0.00000000","0.00000000","0","0"
"124","638","CASA TOYOSATO","Chile",,"Santa Cruz De La Sierra","Av. Cristobal De Mendoza, 1235 - Entre Av. Alemaña Y Av. Ben",,,"(5913) 342-2221",,,"(5913) 342-2066","toyosato@cotas.com.bo",,"0.00000000","0.00000000","0","0"
"125","639","SARGENT AGRÍCOLA LTDA","Equador",,"Santiago","Av. Presidente Bulnes 205",,,"(56-2) 5103300",,,"(56-2) 6983989","agricola@sargent.biz",,"0.00000000","0.00000000","0","0"
"126","640","ARTHUR FRIED C.A.","Peru",,"Quito","Av. America, N36-169 Y Naciones Unydas",,,"(593-4) 2282-556",,,"(593-4) 2282-696","fried@access.net.ec",,"0.00000000","0.00000000","0","0"
"127","641","ARTHUR FRIED C.A.","Peru",,"Quito","Av. America, N36-169 Y Naciones Unydas",,,"(593-2) 2446-533",,,"(593-2) 2463-854","fried@access.net.ec",,"0.00000000","0.00000000","0","0"
"128","642","FARN SUPPLIES LTDA","Guiana",,"Georgetown","159 Durabana Square / Lamaha Gardens",,,"(59-2) 270-450",,,"(59-2) 270-450","farmsup@telsnet.net",,"0.00000000","0.00000000","0","0"
"129","643","MACHDEAL MATERIALES & EQUIPS","México",,"Cayenne","12, Lotissement Dufounier Pk 2,5 - Route De Baduel",,,"(59-4) 296-600",,,"(59-4) 296-600","purchase2@machdeal.gf",,"0.00000000","0.00000000","0","0"
"130","644","SETAC S.R.L","Uruguai",,"Fernando De La Mora","Ruta Mcal. Estigarribia, 1759 - Km 9",,"2300","(595) 21 502-727",,,"(595) 21 502-727","fdo.comercial@setac.com.py",,"0.00000000","0.00000000","0","0"
"131","645","KASAMATSU S.A.C.I","Uruguai",,"Asuncion","Próceres De Mayo, 130 - Esq. Iribas",,"1209","(595-21) 211-567",,,"(595-21) 211-409","kasa@conexion.com.py",,"0.00000000","0.00000000","0","0"
"132","646","SETAC S.R.L.","Uruguai",,"Santa Rita","Ruta Vi - Km 210 - Fracción Bo. Siñuelo",,,"(595) 986 122600","(595) 983 123110",,,"setac@setac.com.py",,"0.00000000","0.00000000","0","0"
"133","647","SETAC S.R.L.","Uruguai",,"Santa Rita","Ruta Vi - Km 210 - Fracción Bo. Siñuelo",,,"(595) 673220163",,,,"rita.comercial@setac.com.py",,"0.00000000","0.00000000","0","0"
"134","648","CHELIR S.A.","Venezuela",,"Montevideo","Cuareim 1953",,,"598 02 929 0708",,,,"chelir@chelir.com.uy",,"0.00000000","0.00000000","0","0"
"135","649","AGRO INDUSTRIAL OCCIDENTE","Colômbia",,"Mérida","Avenida Paez Nº 15 - 115 Via Aeropuerto - El Vigia",,"4005","(58-261) 717-2345",,,"(58-261) 731-4353","maracaibo@agroindocca.com",,"0.00000000","0.00000000","0","0"
"136","650","AGRO INDUSTRIAL OCCIDENTE","Colômbia",,"Mérida","Avenida Paez Nº 15 - 115 Via Aeropuerto - El Vigia",,"5145","(58-275) 881-2711",,,"(58-275) 881-7898","info@agroindocca.com",,"0.00000000","0.00000000","0","0"
"137","652","MAQNELSON TRATORES E IMPLEMENTOS LTDA","Brasil","BA","Feira De Santana","Av. Presidente Dutra - Bairro Capuchinhos","1484","44076-130","(75) 2101-0444",,"75-99822-8174","(75) 2101-0411","maqnelson@uol.com.br",,"-12.25966260","-38.94723740","0","0"
"138","653","COMÉRCIO DE MÁQUINAS AGRÍCOLAS SIEBEL","Brasil","SC","São Miguel Do Oeste","Rua Xv De Novembro","1120","89900-000","(49) 3622-0414",,,"49 3622 6265","comasi@smo.com.br",,"-26.72989000","-53.51141000","0","0"
"139","657","AUTO PEÇAS MACHADO","Brasil","MT","Cáceres","R. General Osório - Bairro Santa Cruz","2335","78200-971","(65) 3223-6077",,,,"machadorolamentos@gmail.com",,"-16.09019000","-57.68918000","0","0"
"140","658","SERVIRENTAL MAQUINÁRIAS S.A.S.","Colômbia",,"Cartagena","Av. Pedro De Heredia, Calle 32 # 19a -42 Local # 4",,,"+ 57-5 6618484",,,,"gerencia@srmaq.com",,"0.00000000","0.00000000","0","0"
"141","659","CONEXÃO INSUMOS AGRICOLAS LTDA","Brasil","SC","Araranguá","Rua Severino José De Souza - Cidade Alta","78","88900-000","(48) 3522-3040",,,,"suprimentos@agrimeta.com.br",,"-28.94512000","-49.49127000","0","0"
"142","660","PICA PAU COM. DE MAQS. E IMPL. AGRICOLAS LTDA.","Brasil","RO","Cacoal","Av. Castelo Branco","18539","76931-360","(69) 3441-2488",,,,"picapaumaquinas@bol.com.br",,"-11.43549000","-61.46114000","0","0"
"143","661","PIAUI AUTOPEÇAS E SERVIÇOS DE MECANICA LTDA. ME","Brasil","PI","Teresina","Av. Valter Alencar - São Pedro","120","64019-625","(86) 3218-2899",,,,"piauimotores@outlook.com",,"-5.11674580","-42.81011290","0","0"
"144","662","JHS TRATORES LTDA. ME","Brasil","SC","Taió","Rua Hartwing Ern - Centro","73","89190-000","(47) 3562-0502",,,,"jhstratores@jhstratores.com.br",,"-27.11598470","-49.99615050","0","0"
"145","663","COML. AGRICOLA HP LTDA EPP","Brasil","SP","Paranapanema","Rua Das Epíceas - Holambra Ii","218","18725-000","(14) 3769-9900",,,,"otto.stoltenborg@gmail.com",,"-23.44670590","-48.87569470","0","0"
"146","664","AGRAMDIESEL IND E COM. DE PEÇAS LTDA","Brasil","SP","Votorantim","Av. Antonio Castanharo - Pq. Jataí","525","18117-330","(15) 3229-5777",,,,"financeiro@agpartsbr.com",,"-23.56851230","-47.45860430","0","0"
"147","665","REMPEL MÁQUINAS AGRÍCOLAS LTDA. - ME","Brasil","PR","Marechal Cândido Rondon","Av. Rio Grande Do Sul - Sala 01 - Centro","5080","85960-000","(45) 3254-2062",,,,"romagrilmaquinas@hotmail.com",,"-24.55582000","-54.05700000","0","0"
"148","666","G. V. PACHECO ME","Brasil","RS","Morrinho Do Sul","Roddovia Rs 494 - Centro","570","95577-000","(51) 3605-1016",,,,"gv.pacheco@outlook.com",,"-29.35825940","-49.93331400","0","0"
"149","667","COOPERATIVA AGROPECUARIA PASSO DA FELICIDADE - COOPERPASSO","Brasil","SC","Videira","Rodovia: Sc","135","89560-000","(49) 3566-5534",,,,"simao@cooperpasso.com.br",,"-27.00596000","-51.15165000","0","0"
"150","669","AGROPLAN MAQUINAS LTDA","Brasil","RS","Três Cachoeiras","Av. Padre Rizzeieri Dela - Centro","1149","95580-000","(51) 3667-1006",,,,"agroplanmaquinas@hotmail.com",,"-29.45582000","-49.92400000","0","0"
"151","670","MENDONÇA E OLIVEIRA LTDA","Brasil","RR","Boa Vista","Av. Ville Roy","7405","69303-445","(95) 3224-9541",,,,"jbmdeoliveira@uol.com",,"2.81493830","-60.67793120","0","0"
"152","671","ADEOMAQ COM. DE PROD E MAQ AGRICOLAS LTDA","Brasil","RS","Alpestre","Avenida Farrapos","522","98480-000","(55) 3796-1058",,,,"adeomaq@oi.com.br",,"-27.25064420","-53.03463990","0","0"
"153","672","J.M COMERCIO DE MAQUINAS LTDA EPP","Brasil","SC","Chapecó","Av. Senador Atílio Fontana - Engenho Braun","885","89809-000","(49) 3323-8857",,,,"jmmaquinasdm@gmail.com",,"-27.08862000","-52.61800000","0","0"
"154","673","RIZZI & CIA LTDA","Brasil","RS","Montenegro","Est Mauricio Cardoso Bairro:rua Barbosa",,"95200-000","(54) 3232-4472",,,,"ricardo@agrimar.com.br",,"-29.68253000","-51.46875000","0","0"
"155","675","JR MÁQUINAS AGRÍCOLAS","Brasil","MG","Montes Claros","Avenida Do Sol - Novo Delfino","650 A","39402-151","(38) 99170-5818",,,,"jrirrigacao.maquinas@gmail.com",,"-16.74202070","-43.83002060","0","0"
"156","676","NENA TRATORES E IMPLEMENTOS LTDA","Brasil","MG","Alfenas","Av. Mario Barbosa Vieira - Loteamento Trevo","954","37132-442","(35) 3292-2211",,,,"gerencia.alfenas@nenatratores.com.br ",,"-21.45638030","-45.94813920","0","0"
"157","678","TRIAMAQ","Brasil","MG","Uberlândia","Av. Prof. Minervina C. De Oliveira - Bom Jesus","2270","38400-746","(34) 3236-9001","(34) 3236-2448",,"(34) 3236-2448","triamaq@triamaq.com.br",,"-18.90746050","-48.29842910","0","0"
"158","679","PULVETEC MAQUINAS AGRICOLAS LTDA","Brasil","PE","Petrolina","Br 407, – Jardim São Paulo","320","56314-570","(87) 3867-9575",,,"(87) 3867-9575","pulvetec@uol.com.br",,"-9.38908300","-40.50309610","0","0"
"159","680","UNYTERRA MAQUINAS AGRICOLAS LTDA. (MATRIZ)","Brasil","RS","Caxias Do Sul","Rod.br.116 - Km.148","17043","95054-780","(54) 3238-8800",,,"(54) 3238-8800","gerente@unyterra.com.br",,"-29.18024001","-51.16498249","0","0"
"161","3232","NAUTICA  PEÇAS  E  AUTOMOTORES  PORTO  NOVO LTDA.","Brasil","RJ","Angrados Reis","Av. Jose Elias Rabla. 3 40 Loja A - B. Paroue Das Palmeras",,"23906-510","(24) 3365-2767",,,,"contato@nauticaportonovo.com.br",,"-22.99955046","-44.30118986","0","0"
"162","3233","AGROCENTER COMERCIAL DE HORTIFRUTIGRAJEIROS EIRELI","Brasil","PB","Campina Grande","Rua Dr.vanconcelos Loja 01 E 02 - Alto Branco","988","58401-450","(83) 3201-3482",,,,"agrocenterpb@gmail.com",,"-7.21088148","-35.88340179","0","0"
"163","3234","VIAMAQ MÁQUINAS E EQUIPAMENTOS LTDA - ME","Brasil","MS","Chapadão Do Sul","Av. Onze - Centro","99","79560-000","(67) 3562-2527",,,,"cleo.viamaq@hotmail.com",,"-18.79509012","-52.61869850","0","0"
"164","3237","MARIA APARECIDA PARADELLO TAGLIAFERRO - ME - IBRASA","Brasil","SP","Lins","Rua Pedro De Toledo - Centro","81","16400-105","(14) 3522-6120",,,,"ibrasa.lins@hotmail.com",,"-21.66979220","-49.75179342","0","0"
"165","3238","AGRICOLA RIO PRETO LTDA","Brasil","AM","Manaus","Av. Torquato Tapajos - Flores","392","69058-830","(92) 9633-4334",,,,"geovane@agroam.com.br",,"-3.07053498","-60.02535679","0","0"
"166","3239","AGRO MARITIMOS LTDA","Brasil","AM","Manaus","Av. Pres. Castelo Branco - Cachoeirinha","675 a 679","69065-010","(92) 3635-1212",,,,"agromaritimos@hotmail.com",,"-3.12943892","-60.00824116","0","0"
"167","3241","AGROCONQUISTA COM. DE TRATORES E IMPL. AGRICOLAS - EIRELLI","Brasil","RJ","Nova Friburgo","Av. Mario De Azevedo - Centro","21279","28630-590","(22) 2543-4111",,,,"josias@agroconquistamaquinas.com.br",,"-22.26890330","-42.61386339","0","0"
"168","3242","MAYCON CARDOSO REIS SÁ - ME","Brasil","MG","Novo Cruzeiro","Praça Sargento Noraldino Rosa - Centro","337","39820-000","(33) 3533-1504",,,,"mayconcasadogado@hotmail.com",,"-17.46587744","-41.87611045","0","0"
"169","3243","PANTHERA MAQUINAS PELAS E IMPLEMENTOS AGRICOLAS LTDA. (ANTIGA JB)","Brasil","PA","Ourilandia Do Norte","Av. Das Nações - Centro","1027","68390-000","(94) 3434-1422",,,,"contabilidadeizaac@hotmail.com",,"-6.74881485","-51.08779355","0","0"
"170","3244","MOI MAQUINAS E IMPLEMENTOS AGRICOLAS LTDA","Brasil","TO","Porto Nacional","Rua 200 Quadra 258 Lote 1 A 7 Sala 2 S/nº - Porto Imperial",,"77500-000","(63) 3363-1323",,,,"moi@moimaquinas.com.br",,"-10.24523707","-48.33310041","0","0"
"171","3245","EDIMAQ-EMP. DISTR. E IMP. DE MAQS. LTDA","Brasil","RO","Porto Velho","Av. Nações Unidas - Nossa Senhora Das Graças","1609","76804-437","(69) 3211-8300",,,,"contabilidade@edimaq.com",,"-8.76868164","-63.88480693","0","0"
"172","3246","LUIZ APARECIDO CAMARGO (IRRIGAR CERTO)","Brasil","AC","Rio Branco","Rua 12 De Outubro - Placas","69","69902-768","(68) 99931-4126",,"(68) 99931-4126",,"luizrecom@hotmail.com",,"-9.94849795","-67.81401393","1","0"
"173","3247","P & S COMERCIO DE MAQUINAS LTDA","Brasil","BA","Rio Real","Rua Da Jandaira, Anexo A - Centro",,"48330-000","(75) 3426-2466",,,,"messiasoliveira@anagronorte.com.br",,"-11.48373000","-37.93445552","0","0"
"174","3248","JC FERNANDES ELETRODOMESTICOS","Brasil","AM","Santo Antonio Do Içá","Rua Alvaro Maia - Centro","719","69680-000","(97) 3461-1488",,,,,,"-3.10422329","-67.94540784","0","0"
"175","3249","OLIM AGRO CEREAIS LTDA.","Brasil","SC","São Joaquim","Av. Irineu Bornhausen - Bairro Martorano","50 - Sala 02","88600-000","(48) 3522-3040",,"(48) 99151-7761",,"luciano.lima@olim.com.br",,"-28.28937122","-49.93521795","0","0"
"176","3250","JOÃO RIBEIRO LIMA & CIA LTDA - CASA DA VARIEDADE (MATRIZ)","Brasil","CE","Ubajara","Rua 31 De Dezembro - Centro","325","62350-000","(88) 3634-1381",,,,"casadavariedade@bol.com.br",,"-3.85442283","-40.92110469","0","0"
"177","3251","COOPERATIVA AGROPECUÁRIA PASSO DA FELICIDADE - COOPERPASSO (FILIAL)","Brasil","SC","Videira","Rodovia - Sc 135 S/n - Km 125 3 - Campo Experimental",,"89560-000","(49) 3566-5534",,,,"emerson@cooperpasso.com.br",,"-27.02689231","-51.14839754","0","0"
"178","3252","FLUMISERRA M. AGR. IND COM LTDA","Brasil","RJ","Volta Redonda","Av. Almirante Adalberto Nunes ","3676","27274-200","(24) 3346-2074",,,,"flumisserra@flumisserra.com.br",,"-22.50857627","-44.12258265","0","0"
"179","3290","COMERCIAL SCARDUA","Brasil","ES","Serra","Rodovia Governador Mario Covas","4251","29278-000","(27) 3721-5412",,"(27) 9 9720-3423",,"comercial@comercialscardua.com.br","gerencia@comercialscardua.com.br","20.36244670","40.69323750","0","0"
"180","3291","COMERCIAL SCARDUA","Brasil","ES","Serra","Rodovia Governador Mario Covas","4251","29909-010","(27) 9 9913-7477",,"(27) 9 9720-3423",,"comercial@comercialscardua.com.br","gerencia@comercialscardua.com.br","19.39896590","40.10037000","0","0"
"181","3293","COMERCIAL SCARDUA","Brasil","ES","Serra","Rodovia Governador Mario Covas","4251","29162-703","(27) 3221-2391",,"(27) 9 9720-3423",,"comercial@comercialscardua.com.br","gerencia@comercialscardua.com.br","20.12790140","40.34312720","0","0"
"182","3300","OSMAR MAREGA LTDA – MAREGA IMPLEMENTOS","Brasil","PR","Maringá","Rodovia Pr 317, 2105 Pq Industrial",,"87065-005","(44) 3052-5151",,"(44) 99972-2365",,"mailto:maregaimplementos@hotmail.com",,"-23.48289800","52.00501400","0","0"
"183","3309","AGRÍCOLA CARMELITANA LTDA","Brasil","MG","Monte Carmelo","Avenida Olegário Maciel - Batuque","446","38500-000","(34) 3842-3188",,,,"carmelitana@parkmaquinas.com.br",,"-18.73334018","-47.49856507","0","0"
"184","3314","RIZZI & CIA LTDA ","Brasil","RS","Montenegro","Est Mauricio Cardoso Bairro:rua Barbosa",,"95780-000","(54) 3238-8200",,,,"lucas.dosciatti@agrimar.com.br","claudio.pereira@agrimar.com.br","-29.68656900","-51.48176800","0","0"
"185","3321","AGRO OUROVERDE LTDA","Brasil","SC","Santa Terezinha","Rua Bruno Pieczarcka - Centro","620","89199-000","(47) 3556-0010",,,,"santaterezinha@agroouroverde.agr.br",,"-26.77791135","-50.00689973","0","0"
"186","3323","IMPLEMAQ IMPLEMENTOS E MAQ. AGRICOLAS LTDA","Brasil","PR","Palmeira","Avenida Das Palmeiras - Colonia Francesa","1033","84130-000","(42) 3355-8982",,,,"felipe@implemaqagro.com.br",,"-25.44517016","-50.01133573","0","0"
"187","3324","RGM COMÉRCIO E SERVIÇOS  DE MAQ.AGRICOLAS LTDA","Brasil","MG","Muriaé","Rua Antenor Mazorque Sobrinho, Barra","194","36884-034","(32) 3722-5448",,"(32) 98892-6617",,"ranielledamatta@agrovalemg.com.br",,"-21.13030000","-42.36740000","0","0"
"188","29938","ESKINÃO VEICULOS E TRATORES LTDA","BRASIL","BA","Irecê","AV. SANTOS LOPES,","340 - B","44900-000","(74) 9 9998-0199","(74) 99934-4884",,,"georgiasoares@itealtratores.com.br",,"-11.30355500","-41.85615030","1","1"
